[{"OBJECT_NAME":"STARLINK-3386","OBJECT_ID":"2022-005Y","EPOCH":"2026-03-09T21:22:14.765088","MEAN_MOTION":15.08839052,"ECCENTRICITY":0.00014515,"INCLINATION":53.2182,"RA_OF_ASC_NODE":298.2328,"ARG_OF_PERICENTER":80.3385,"MEAN_ANOMALY":279.7771,"EPHEMERIS_TYPE":0,"CLASSIFICATION_TYPE":"U","NORAD_CAT_ID":51126,"ELEMENT_SET_NO":999,"REV_AT_EPOCH":22877,"BSTAR":5.3595667e-5,"MEAN_MOTION_DOT":5.65e-6,"MEAN_MOTION_DDOT":0},{"OBJECT_NAME":"TIANPING 2C","OBJECT_ID":"2022-032D","EPOCH":"2026-03-09T22:24:23.522112","MEAN_MOTION":15.10225163,"ECCENTRICITY":0.00079422,"INCLINATION":97.5961,"RA_OF_ASC_NODE":122.1196,"ARG_OF_PERICENTER":128.8925,"MEAN_ANOMALY":231.3013,"EPHEMERIS_TYPE":0,"CLASSIFICATION_TYPE":"U","NORAD_CAT_ID":52156,"ELEMENT_SET_NO":999,"REV_AT_EPOCH":21586,"BSTAR":0.00036090623,"MEAN_MOTION_DOT":5.841e-5,"MEAN_MOTION_DDOT":0}]
